stk.v.8.0

BEGIN Ephemeris

NumberofEphemerisPoints	1200
ScenarioEpoch			20 Oct 2014 13:21:15.0000
InterpolationMethod		Lagrange
InterpolationOrder		5
DistanceUnit				Meters
CentralBody				Target
CoordinateSystem		CW
CoordianteSystemEpoch	20 Oct 2014 13:21:15.0000

EphemerisTimePosVel

11245.286072	2.235428	4.209792	4.009444	-0.009574	-0.009785	-0.003430
11272.303586	1.970753	3.952080	3.914610	-0.009932	-0.009206	-0.003559
11299.321101	1.696459	3.710362	3.816329	-0.010283	-0.008606	-0.003684
11326.338616	1.412788	3.485201	3.714689	-0.010624	-0.007986	-0.003806
11353.356130	1.119990	3.277147	3.609778	-0.010955	-0.007345	-0.003925
11380.373645	0.818321	3.086734	3.501689	-0.011277	-0.006686	-0.004041
11407.391159	0.508049	2.914480	3.390517	-0.011589	-0.006007	-0.004153
11434.408674	0.189445	2.760889	3.276360	-0.011891	-0.005310	-0.004261
11461.426188	-0.137209	2.626445	3.159319	-0.012183	-0.004596	-0.004365
11488.443703	-0.471626	2.511618	3.039496	-0.012463	-0.003865	-0.004466
11515.461218	-0.813512	2.416861	2.916997	-0.012733	-0.003117	-0.004562
11542.478732	-1.162565	2.342608	2.791930	-0.012992	-0.002353	-0.004655
11569.496247	-1.518479	2.289274	2.664405	-0.013239	-0.001575	-0.004743
11596.513761	-1.880939	2.257258	2.534534	-0.013474	-0.000782	-0.004828
11623.531276	-2.249627	2.246939	2.402432	-0.013698	0.000024	-0.004908
11650.548791	-2.624219	2.258676	2.268214	-0.013909	0.000843	-0.004984
11677.566305	-3.004383	2.292811	2.132000	-0.014108	0.001675	-0.005055
11704.583820	-3.389787	2.349664	1.993909	-0.014295	0.002518	-0.005122
11731.601334	-3.780090	2.429537	1.854062	-0.014469	0.003371	-0.005184
11758.618849	-4.174948	2.532708	1.712583	-0.014631	0.004235	-0.005242
11785.636364	-4.574015	2.659440	1.569596	-0.014780	0.005107	-0.005296
11812.653878	-4.976938	2.809971	1.425227	-0.014915	0.005989	-0.005344
11839.671393	-5.383363	2.984519	1.279603	-0.015038	0.006877	-0.005388
11866.688907	-5.792933	3.183281	1.132853	-0.015147	0.007773	-0.005427
11893.706422	-6.205286	3.406435	0.985105	-0.015243	0.008675	-0.005462
11920.723937	-6.620059	3.654133	0.836490	-0.015325	0.009582	-0.005491
11947.741451	-7.036888	3.926509	0.687139	-0.015394	0.010494	-0.005516
11974.758966	-7.455406	4.223674	0.537182	-0.015450	0.011409	-0.005536
12001.776480	-7.875243	4.545717	0.386753	-0.015492	0.012327	-0.005551
12028.793995	-8.296031	4.892705	0.235983	-0.015520	0.013247	-0.005561
12055.811510	-8.717399	5.264685	0.085006	-0.015534	0.014169	-0.005566
12082.829024	-9.138975	5.661679	-0.066047	-0.015535	0.015091	-0.005566
12109.846539	-9.560389	6.083688	-0.217041	-0.015522	0.016013	-0.005562
12136.864053	-9.981270	6.530693	-0.367844	-0.015496	0.016933	-0.005552
12163.881568	-10.401247	7.002650	-0.518323	-0.015456	0.017852	-0.005538
12190.899083	-10.819951	7.499495	-0.668346	-0.015402	0.018767	-0.005519
12217.916597	-11.237012	8.021142	-0.817781	-0.015335	0.019679	-0.005494
12244.934112	-11.652064	8.567481	-0.966495	-0.015254	0.020587	-0.005466
12271.951626	-12.064740	9.138383	-1.114359	-0.015160	0.021490	-0.005432
12298.969141	-12.474679	9.733696	-1.261242	-0.015052	0.022386	-0.005393
12325.986656	-12.881519	10.353247	-1.407014	-0.014931	0.023276	-0.005350
12353.004170	-13.284901	10.996841	-1.551547	-0.014797	0.024158	-0.005302
12380.021685	-13.684471	11.664263	-1.694715	-0.014650	0.025032	-0.005249
12407.039199	-14.079877	12.355276	-1.836390	-0.014490	0.025897	-0.005192
12434.056714	-14.470771	13.069622	-1.976448	-0.014318	0.026752	-0.005130
12461.074229	-14.856808	13.807024	-2.114767	-0.014133	0.027596	-0.005064
12488.091743	-15.237648	14.567183	-2.251224	-0.013935	0.028429	-0.004993
12515.109258	-15.612958	15.349780	-2.385698	-0.013725	0.029250	-0.004918
12542.126772	-15.982405	16.154478	-2.518072	-0.013503	0.030058	-0.004838
12569.144287	-16.345664	16.980920	-2.648230	-0.013269	0.030852	-0.004754
12596.161802	-16.702417	17.828727	-2.776056	-0.013023	0.031632	-0.004666
12623.179316	-17.052348	18.697505	-2.901437	-0.012766	0.032398	-0.004574
12650.196831	-17.395150	19.586841	-3.024264	-0.012498	0.033147	-0.004478
12677.214345	-17.730521	20.496301	-3.144429	-0.012218	0.033881	-0.004378
12704.231860	-18.058166	21.425436	-3.261825	-0.011928	0.034597	-0.004274
12731.249374	-18.377796	22.373778	-3.376350	-0.011628	0.035296	-0.004166
12758.266889	-18.689129	23.340845	-3.487902	-0.011317	0.035977	-0.004055
12785.284404	-18.991892	24.326135	-3.596383	-0.010996	0.036639	-0.003940
12812.301918	-19.285819	25.329132	-3.701698	-0.010666	0.037282	-0.003822
12839.319433	-19.570649	26.349303	-3.803754	-0.010326	0.037905	-0.003700
12866.336947	-19.846133	27.386102	-3.902461	-0.009977	0.038508	-0.003575
12893.354462	-20.112028	28.438966	-3.997732	-0.009619	0.039089	-0.003447
12920.371977	-20.368100	29.507319	-4.089483	-0.009253	0.039649	-0.003315
12947.389491	-20.614124	30.590572	-4.177634	-0.008879	0.040187	-0.003181
12974.407006	-20.849882	31.688122	-4.262108	-0.008496	0.040703	-0.003044
13001.424520	-21.075168	32.799353	-4.342828	-0.008107	0.041195	-0.002905
13028.442035	-21.289783	33.923639	-4.419725	-0.007710	0.041665	-0.002763
13055.459550	-21.493537	35.060339	-4.492732	-0.007306	0.042110	-0.002618
13082.477064	-21.686253	36.208805	-4.561782	-0.006896	0.042532	-0.002471
13109.494579	-21.867759	37.368376	-4.626816	-0.006480	0.042929	-0.002322
13136.512093	-22.037896	38.538382	-4.687777	-0.006059	0.043301	-0.002171
13163.529608	-22.196515	39.718144	-4.744611	-0.005631	0.043648	-0.002018
13190.547123	-22.343476	40.906973	-4.797268	-0.005199	0.043969	-0.001863
13217.564637	-22.478648	42.104175	-4.845700	-0.004763	0.044265	-0.001706
13244.582152	-22.601915	43.309047	-4.889867	-0.004322	0.044534	-0.001549
13271.599666	-22.713166	44.520877	-4.929729	-0.003877	0.044778	-0.001389
13298.617181	-22.812303	45.738951	-4.965250	-0.003429	0.044995	-0.001229
13325.634696	-22.899241	46.962546	-4.996400	-0.002978	0.045185	-0.001067
13352.652210	-22.973901	48.190937	-5.023151	-0.002524	0.045348	-0.000904
13379.669725	-23.036219	49.423393	-5.045480	-0.002068	0.045484	-0.000741
13406.687239	-23.086139	50.659180	-5.063366	-0.001611	0.045593	-0.000577
13433.704754	-23.123617	51.897560	-5.076795	-0.001151	0.045675	-0.000413
13460.722269	-23.148622	53.137794	-5.085754	-0.000691	0.045730	-0.000248
13487.739783	-23.161129	54.379141	-5.090236	-0.000230	0.045757	-0.000083
13514.757298	-23.161129	55.620859	-5.090236	0.000230	0.045757	0.000083
13541.774812	-23.148622	56.862207	-5.085754	0.000691	0.045730	0.000248
13568.792327	-23.123617	58.102441	-5.076795	0.001151	0.045675	0.000413
13595.809842	-23.086139	59.340821	-5.063366	0.001611	0.045593	0.000577
13622.827356	-23.036219	60.576607	-5.045480	0.002068	0.045484	0.000741
13649.844871	-22.973901	61.809063	-5.023151	0.002524	0.045348	0.000904
13676.862385	-22.899241	63.037454	-4.996400	0.002978	0.045185	0.001067
13703.879900	-22.812303	64.261050	-4.965250	0.003429	0.044995	0.001229
13730.897415	-22.713166	65.479123	-4.929729	0.003877	0.044778	0.001389
13757.914929	-22.601915	66.690954	-4.889867	0.004322	0.044534	0.001549
13784.932444	-22.478648	67.895825	-4.845700	0.004763	0.044265	0.001706
13811.949958	-22.343476	69.093027	-4.797267	0.005199	0.043969	0.001863
13838.967473	-22.196515	70.281857	-4.744611	0.005631	0.043648	0.002018
13865.984987	-22.037896	71.461619	-4.687777	0.006059	0.043301	0.002171
13893.002502	-21.867759	72.631624	-4.626816	0.006480	0.042929	0.002322
13920.020017	-21.686253	73.791195	-4.561782	0.006896	0.042532	0.002471
13947.037531	-21.493537	74.939661	-4.492732	0.007306	0.042110	0.002618
13974.055046	-21.289783	76.076362	-4.419725	0.007710	0.041665	0.002763
14001.072560	-21.075168	77.200647	-4.342828	0.008107	0.041195	0.002905
14028.090075	-20.849882	78.311878	-4.262108	0.008496	0.040703	0.003044
14055.107590	-20.614124	79.409428	-4.177634	0.008879	0.040187	0.003181
14082.125104	-20.368100	80.492681	-4.089483	0.009253	0.039649	0.003315
14109.142619	-20.112028	81.561035	-3.997732	0.009619	0.039089	0.003447
14136.160133	-19.846133	82.613899	-3.902461	0.009977	0.038508	0.003575
14163.177648	-19.570649	83.650697	-3.803754	0.010326	0.037905	0.003700
14190.195163	-19.285818	84.670869	-3.701698	0.010666	0.037282	0.003822
14217.212677	-18.991892	85.673865	-3.596383	0.010996	0.036639	0.003940
14244.230192	-18.689129	86.659155	-3.487902	0.011317	0.035977	0.004055
14271.247706	-18.377796	87.626222	-3.376350	0.011628	0.035296	0.004166
14298.265221	-18.058166	88.574565	-3.261825	0.011928	0.034597	0.004274
14325.282736	-17.730521	89.503700	-3.144429	0.012218	0.033881	0.004378
14352.300250	-17.395150	90.413160	-3.024264	0.012498	0.033147	0.004478
14379.317765	-17.052348	91.302495	-2.901437	0.012766	0.032398	0.004574
14406.335279	-16.702417	92.171273	-2.776055	0.013023	0.031632	0.004666
14433.352794	-16.345664	93.019081	-2.648230	0.013269	0.030852	0.004754
14460.370309	-15.982404	93.845522	-2.518072	0.013503	0.030058	0.004838
14487.387823	-15.612957	94.650220	-2.385698	0.013725	0.029250	0.004918
14514.405338	-15.237648	95.432818	-2.251224	0.013935	0.028429	0.004993
14541.422852	-14.856808	96.192976	-2.114767	0.014133	0.027596	0.005064
14568.440367	-14.470771	96.930378	-1.976448	0.014318	0.026752	0.005130
14595.457882	-14.079877	97.644724	-1.836390	0.014490	0.025897	0.005192
14622.475396	-13.684471	98.335737	-1.694714	0.014650	0.025032	0.005249
14649.492911	-13.284901	99.003159	-1.551547	0.014797	0.024158	0.005302
14676.510425	-12.881519	99.646753	-1.407014	0.014931	0.023276	0.005350
14703.527940	-12.474679	100.266304	-1.261242	0.015052	0.022386	0.005393
14730.545455	-12.064740	100.861617	-1.114359	0.015160	0.021490	0.005432
14757.562969	-11.652063	101.432519	-0.966495	0.015254	0.020587	0.005466
14784.580484	-11.237012	101.978859	-0.817781	0.015335	0.019679	0.005494
14811.597998	-10.819950	102.500505	-0.668346	0.015402	0.018767	0.005519
14838.615513	-10.401247	102.997350	-0.518323	0.015456	0.017852	0.005538
14865.633028	-9.981270	103.469307	-0.367844	0.015496	0.016933	0.005552
END Ephemeris